TRANSPORTER-12 OBJECT AZ
1 62656U 25009AZ  26068.71026235  .00016057  00000+0  54903-3 0  9991
2 62656  97.3981 151.9913 0000987  45.3581 314.7740 15.30349724 63792
STARLINK-34537          
1 64778U 25147Z   26068.71652418  .00028615  00000+0  97442-3 0  9997
2 64778  53.1565 219.7468 0000835  90.4465 269.6632 15.30203721 39101
